IRIDIUM 154             
1 43574U 18061F   26196.55762104  .00000059  00000+0  13992-4 0  9994
2 43574  86.3940  44.9399 0002302  90.6137 269.5322 14.34217479417470
IRIDIUM 163             
1 43575U 18061G   26196.53859373  .00000035  00000+0  54979-5 0  9993
2 43575  86.3936  44.8621 0002112  85.9654 274.1784 14.34217269417441
IRIDIUM 156             
1 43576U 18061H   26196.93183424  .00000049  00000+0  10449-4 0  9993
2 43576  86.3936  44.7048 0002101  92.6449 267.4987 14.34217670417490
IRIDIUM 164             
1 43577U 18061J   26196.91280735  .00000136  00000+0  41582-4 0  9994
2 43577  86.3938  44.7537 0002322  89.1142 271.0320 14.34218445417530
IRIDIUM 159             
1 43578U 18061K   26196.53225076  .00000048  00000+0  99842-5 0  9995
2 43578  86.3935  44.8492 0002135  85.4483 274.6956 14.34217468417446
IRIDIUM 180             
1 43922U 19002A   26196.81082101  .00000108  00000+0  31420-4 0  9999
2 43922  86.3993 341.6318 0002216  90.8839 269.2610 14.34218511393094
IRIDIUM 176             
1 43923U 19002B   26196.90944157  .00000377  00000+0  55958-4 0  9998
2 43923  86.6112 341.5300 0002334  90.1985 269.9500 14.72249564403470
IRIDIUM 168             
1 43924U 19002C   26196.94401588 -.00000017  00000+0 -13198-4 0  9992
2 43924  86.3989 341.6542 0002114  91.4243 268.7195 14.34216620393094
IRIDIUM 173             
1 43925U 19002D   26196.93133101 -.00000072  00000+0 -32787-4 0  9991
2 43925  86.3986 341.5475 0002131  93.6953 266.4487 14.34216721393076
IRIDIUM 169             
1 43926U 19002E   26196.90917604  .00000042  00000+0  71973-5 0  9993
2 43926  86.4222  13.1813 0001908 104.0218 256.1193 14.38613309394350
IRIDIUM 172             
1 43927U 19002F   26196.92498868  .00000027  00000+0  24508-5 0  9997
2 43927  86.3990 341.5576 0002178  90.7114 269.4332 14.34217555393082
IRIDIUM 175             
1 43928U 19002G   26196.76411204  .00000177  00000+0  46394-4 0  9991
2 43928  86.4512 278.5763 0005333 114.1961 245.9798 14.43627441403107
IRIDIUM 171             
1 43929U 19002H   26196.90596028  .00000042  00000+0  79405-5 0  9997
2 43929  86.4000 341.8749 0002238  95.1181 265.0271 14.34217724393073
IRIDIUM 170             
1 43930U 19002J   26196.91561114  .00000381  00000+0  56445-4 0  9992
2 43930  86.6111 341.5296 0002252  86.7738 273.3737 14.72250171403485
IRIDIUM 167             
1 43931U 19002K   26196.89961754  .00000031  00000+0  39707-5 0  9999
2 43931  86.3992 341.5910 0002307  98.4900 261.6557 14.34217723393072
IRIDIUM 181             
1 56726U 23068S   26196.53149983  .00000172  00000+0  45155-4 0  9994
2 56726  86.4474  44.9372 0002412  83.4871 276.6605 14.43312397166529
IRIDIUM 177             
1 56727U 23068T   26196.85313333  .00000550  00000+0  69174-4 0  9999
2 56727  86.1986 315.1817 0002177  95.4912 264.6558 14.80024364170602
IRIDIUM 174             
1 56728U 23068U   26196.90316384  .00000388  00000+0  57649-4 0  9998
2 56728  86.6120 341.6850 0001983  88.3147 271.8297 14.72258769170243
IRIDIUM 178             
1 56729U 23068V   26196.90974238  .00000182  00000+0  20564-4 0  9995
2 56729  86.6536  13.3547 0002309  90.9107 269.2379 14.80026522170611
IRIDIUM 179             
1 56730U 23068W   26196.02544386  .00000137  00000+0  14651-4 0  9997
2 56730  86.6767  22.7863 0002321  93.3552 266.7935 14.80033495170481
